{"generatedAtIso":"2026-06-13T18:15:07.840Z","source":"CelesTrak GP (NORAD)","objectCount":8427,"typeCounts":{"PAYLOAD":6818,"ROCKET_BODY":11,"DEBRIS":1598},"objects":[{"noradId":24674,"name":"INMARSAT 3-F3","line1":"1 24674U 96070A   26163.78308595  .00000136  00000+0  00000+0 0  9996","line2":"2 24674  10.3092  49.6969 0003455  19.4088 161.0342  0.99980403107861","type":"PAYLOAD","tag":"ACTIVE"},{"noradId":24876,"name":"NAVSTAR 43 (USA 132)","line1":"1 24876U 97035A   26164.21294647 -.00000013  00000+0  00000+0 0  9998","line2":"2 24876  55.9929  98.7307 0102280  56.8493 304.0973  2.00563760211874","type":"PAYLOAD","tag":"ACTIVE"},{"noradId":24920,"name":"FORTE","line1":"1 24920U 97047A   26164.03196907  .00000149  00000+0  83242-4 0  9994","line2":"2 24920  69.9540  23.4072 0024586 282.4272  77.4099 14.27943630498097","type":"PAYLOAD","tag":"ACTIVE"},{"noradId":24936,"name":"AMC-3","line1":"1 24936U 97050A   26163.32267052  .00000054  00000+0  00000+0 0  9997","line2":"2 24936   8.1510  64.0494 0004111  27.8772 175.7330  0.99060680 52380","type":"PAYLOAD","tag":"ACTIVE"},{"noradId":24946,"name":"IRIDIUM 33","line1":"1 24946U 97051C   26164.24828982  .00000220  00000+0  70155-4 0  9994","line2":"2 24946  86.3872 351.6111 0007409 355.3710   4.7416 14.35147805504529","type":"PAYLOAD","tag":"COLLISION_2009"},{"noradId":25019,"name":"USA 134","line1":"1 25019U 97065A   26164.32513208 -.00000062  00000+0  00000+0 0  9994","line2":"2 25019  12.7794  21.7511 0003367 335.9303 268.7675  1.00269340 32912","type":"PAYLOAD","tag":"ACTIVE"},{"noradId":25118,"name":"ORBCOMM FM06","line1":"1 25118U 97084G   26164.06172309  .00001150  00000+0  34863-3 0  9995","line2":"2 25118  45.0142  72.5721 0001539 318.6233  56.4827 14.47553366493791","type":"PAYLOAD","tag":"ACTIVE"},{"noradId":25153,"name":"INMARSAT 3-F5","line1":"1 25153U 98006B   26164.12406229 -.00000287  00000+0  00000+0 0  9990","line2":"2 25153   9.6840  53.2993 0004429  25.6664 173.1600  1.00269237103859","type":"PAYLOAD","tag":"ACTIVE"},{"noradId":25159,"name":"ORBCOMM FM04","line1":"1 25159U 98007C   26164.21401872  .00000803  00000+0  32023-3 0  9993","line2":"2 25159 107.9627 161.2419 0041213 331.6061  28.2835 14.35734627476020","type":"PAYLOAD","tag":"ACTIVE"},{"noradId":25160,"name":"CELESTIS-02 & TAURUS R/B","line1":"1 25160U 98007D   26164.24400317  .00000032  00000+0  71089-4 0  9991","line2":"2 25160 108.0138 324.3629 0060881 141.1570 290.2246 14.22485373469955","type":"ROCKET_BODY","tag":"ACTIVE"},{"noradId":25397,"name":"TECHSAT 1B (GO-32)","line1":"1 25397U 98043D   26163.92005205  .00000055  00000+0  44031-4 0  9996","line2":"2 25397  99.0066 156.5710 0000824 172.5768 187.5423 14.24427656450722","type":"PAYLOAD","tag":"ACTIVE"},{"noradId":25398,"name":"WESTPAC","line1":"1 25398U 98043E   26164.18954380 -.00000017  00000+0  12964-4 0  9992","line2":"2 25398  99.0135 150.1429 0000992 171.6142 188.5052 14.23053154450376","type":"PAYLOAD","tag":"ACTIVE"},{"noradId":25415,"name":"ORBCOMM FM19","line1":"1 25415U 98046C   26164.00777884  .00000689  00000+0  26446-3 0  9991","line2":"2 25415  44.9938 263.4282 0004492 264.7630 264.8592 14.39489532456177","type":"PAYLOAD","tag":"ACTIVE"},{"noradId":25416,"name":"ORBCOMM FM20","line1":"1 25416U 98046D   26163.98366676  .00000543  00000+0  22434-3 0  9993","line2":"2 25416  44.9943 271.4189 0002054 236.4114 123.6538 14.38061574456188","type":"PAYLOAD","tag":"ACTIVE"},{"noradId":25481,"name":"ORBCOMM FM27","line1":"1 25481U 98053G   26164.23066444  .00000836  00000+0  31342-3 0  9995","line2":"2 25481  45.0064 354.1460 0000617 175.1313 184.9542 14.39134590449660","type":"PAYLOAD","tag":"ACTIVE"},{"noradId":25504,"name":"SCD 2","line1":"1 25504U 98060A   26164.15409937  .00000382  00000+0  55754-4 0  9998","line2":"2 25504  24.9947  97.0290 0016973  80.8885 302.2821 14.45524442459745","type":"PAYLOAD","tag":"ACTIVE"},{"noradId":25544,"name":"ISS (ZARYA)","line1":"1 25544U 98067A   26164.12566316  .00008200  00000+0  15573-3 0  9992","line2":"2 25544  51.6335 320.1950 0004891 179.6545 180.4447 15.49201403571127","type":"PAYLOAD","tag":"STATION"},{"noradId":25560,"name":"SWAS","line1":"1 25560U 98071A   26164.30509188  .00003271  00000+0  20940-3 0  9996","line2":"2 25560  69.8962 237.5303 0008774 263.9777  96.0387 15.09605489496683","type":"PAYLOAD","tag":"ACTIVE"},{"noradId":25575,"name":"ISS (UNITY)","line1":"1 25575U 98069F   26164.12566316  .00008200  00000+0  15573-3 0  9998","line2":"2 25575  51.6335 320.1950 0004891 179.6545 180.4447 15.49201403570760","type":"PAYLOAD","tag":"ACTIVE"},{"noradId":25730,"name":"FENGYUN 1C","line1":"1 25730U 99025A   26164.09682793  .00001428  00000+0  60507-3 0  9990","line2":"2 25730  98.8637 237.5666 0009490 263.1908  96.8192 14.27022579397379","type":"PAYLOAD","tag":"ASAT_2007"},{"noradId":25757,"name":"DLR-TUBSAT","line1":"1 25757U 99029B   26164.22890721  .00000082  00000+0  31938-4 0  9992","line2":"2 25757  98.6695 159.6028 0014308   7.2294 352.9104 14.52425962432678","type":"PAYLOAD","tag":"ACTIVE"},{"noradId":25867,"name":"CXO","line1":"1 25867U 99040B   26166.73124906  .00000579  00000+0  00000+0 0  9992","line2":"2 25867  56.1776 116.6293 7842889 310.3072   0.0447  0.37804362 17312","type":"PAYLOAD","tag":"ACTIVE"},{"noradId":25924,"name":"ABS-6","line1":"1 25924U 99053A   26164.22308773  .00000000  00000+0  00000+0 0  9997","line2":"2 25924   0.0290  33.7650 0003477  67.0540  40.0348  1.00269160 97800","type":"PAYLOAD","tag":"ACTIVE"},{"noradId":25933,"name":"NAVSTAR 46 (USA 145)","line1":"1 25933U 99055A   26163.55365360 -.00000062  00000+0  00000+0 0  9998","line2":"2 25933  51.4679 295.6715 0106645 175.4181   0.9791  2.00562374195482","type":"PAYLOAD","tag":"ACTIVE"},{"noradId":25967,"name":"UFO 10 (USA 146)","line1":"1 25967U 99063A   26163.40285757 -.00000182  00000+0  00000+0 0  9992","line2":"2 25967   9.8428  27.2366 0002106  32.1640 323.4355  1.00272117 97296","type":"PAYLOAD","tag":"ACTIVE"},{"noradId":25982,"name":"ORBCOMM FM32","line1":"1 25982U 99065C   26163.77189292  .00000465  00000+0  20231-3 0  9993","line2":"2 25982  45.0137 194.1394 0004750  11.6385 348.4572 14.37125748386450","type":"PAYLOAD","tag":"ACTIVE"},{"noradId":25989,"name":"XMM-NEWTON","line1":"1 25989U 99066A   26165.35763487  .00000064  00000+0  00000+0 0  9994","line2":"2 25989  64.5048 283.0226 4675842  64.9764   0.1205  0.50124916 22995","type":"PAYLOAD","tag":"ACTIVE"},{"noradId":25994,"name":"TERRA","line1":"1 25994U 99068A   26164.25360138  .00000362  00000+0  82662-4 0  9996","line2":"2 25994  97.9457 213.9557 0001280 204.7308 230.1329 14.61100215409036","type":"PAYLOAD","tag":"ACTIVE"},{"noradId":26107,"name":"ASIASTAR","line1":"1 26107U 00016A   26163.64206197 -.00000327  00000+0  00000+0 0  9997","line2":"2 26107   9.1187  58.2030 0004403  24.8143 154.1180  1.00270975 95875","type":"PAYLOAD","tag":"ACTIVE"},{"noradId":26113,"name":"IMAGE","line1":"1 26113U 00017A   26162.34581823  .00000011  00000+0  22926-1 0  9995","line2":"2 26113  94.2241 315.2958 7436383 288.4674   8.8959  1.68665984161407","type":"PAYLOAD","tag":"ACTIVE"},{"noradId":26356,"name":"USA 149 (DSP 20)","line1":"1 26356U 00024A   26164.31198403  .00000095  00000+0  00000+0 0  9998","line2":"2 26356  13.1676  11.8796 0001816 305.2912 251.3639  1.00273051 32876","type":"PAYLOAD","tag":"ACTIVE"},{"noradId":26388,"name":"TDRS 8","line1":"1 26388U 00034A   26163.63798861 -.00000190  00000+0  00000+0 0  9999","line2":"2 26388  12.6767  31.3622 0004816  14.9650 168.9899  1.00268045 95133","type":"PAYLOAD","tag":"ACTIVE"},{"noradId":26400,"name":"ISS (ZVEZDA)","line1":"1 26400U 00037A   26164.12566316  .00008200  00000+0  15573-3 0  9994","line2":"2 26400  51.6335 320.1950 0004891 179.6545 180.4447 15.49201403570768","type":"PAYLOAD","tag":"ACTIVE"},{"noradId":26407,"name":"NAVSTAR 48 (USA 151)","line1":"1 26407U 00040A   26164.30270897  .00000084  00000+0  00000+0 0  9998","line2":"2 26407  54.8518 215.3166 0121063 302.4572  56.6362  2.00557597189873","type":"PAYLOAD","tag":"ACTIVE"},{"noradId":26410,"name":"CLUSTER II-FM7 (SAMBA)","line1":"1 26410U 00041A   26165.90943278  .00008926  00000+0  00000+0 0  9993","line2":"2 26410 149.9112  50.5199 9050263 267.6271 359.8755  0.44879327 20296","type":"PAYLOAD","tag":"ACTIVE"},{"noradId":26464,"name":"CLUSTER II-FM8 (TANGO)","line1":"1 26464U 00045B   26161.68509682  .00004606  00000+0  00000+0 0  9995","line2":"2 26464 150.1494  50.8052 9052968 267.7196   3.1444  0.44409537 20289","type":"PAYLOAD","tag":"ACTIVE"},{"noradId":26554,"name":"NSS-11","line1":"1 26554U 00059A   26164.22646774  .00000036  00000+0  00000+0 0  9990","line2":"2 26554   2.1160  81.4333 0002865   7.9231  69.7348  1.00273028 41251","type":"PAYLOAD","tag":"ACTIVE"},{"noradId":26575,"name":"USA 153","line1":"1 26575U 00065A   26163.50526999 -.00000319  00000+0  00000+0 0  9991","line2":"2 26575  11.6166  35.4608 0003044  46.8377 134.9430  1.00270537 32880","type":"PAYLOAD","tag":"ACTIVE"},{"noradId":26580,"name":"AMC-6","line1":"1 26580U 00067A   26164.27044106  .00000101  00000+0  00000+0 0  9997","line2":"2 26580   0.1422  83.0756 0003453  10.3685 130.4629  1.00272015 93857","type":"PAYLOAD","tag":"ACTIVE"},{"noradId":26605,"name":"NAVSTAR 49 (USA 154)","line1":"1 26605U 00071A   26164.12396037 -.00000018  00000+0  00000+0 0  9995","line2":"2 26605  55.6235  95.1148 0174228 266.7320 247.9099  2.00565585187434","type":"PAYLOAD","tag":"ACTIVE"},{"noradId":26700,"name":"ISS (DESTINY)","line1":"1 26700U 01006B   26164.12566316  .00008200  00000+0  15573-3 0  9994","line2":"2 26700  51.6335 320.1950 0004891 179.6545 180.4447 15.49201403570761","type":"PAYLOAD","tag":"ACTIVE"},{"noradId":26702,"name":"ODIN","line1":"1 26702U 01007A   26164.09214154  .00175835  00000+0  11903-2 0  9994","line2":"2 26702  97.3846 204.7744 0006579 148.0706 212.0959 15.74479547388759","type":"PAYLOAD","tag":"ACTIVE"}]}